CCSDS_OMM_VERS = 2.0
CREATION_DATE  = 
ORIGINATOR     = 

OBJECT_NAME    = STARLINK-37042
OBJECT_ID      = 2026-055E
CENTER_NAME    = EARTH
REF_FRAME      = TEME
TIME_SYSTEM    = UTC
MEAN_ELEMENT_THEORY = SGP/SGP4

EPOCH          = 2026-04-01T20:00:01.999008
MEAN_MOTION    = 15.85961765
ECCENTRICITY   = .0000813
INCLINATION    = 53.1574
RA_OF_ASC_NODE = 221.3130
ARG_OF_PERICENTER = 58.5280
MEAN_ANOMALY   = 239.9274

EPHEMERIS_TYPE = 0
CLASSIFICATION_TYPE = U
NORAD_CAT_ID   = 68266
ELEMENT_SET_NO = 999
REV_AT_EPOCH   = 335
BSTAR          = -.52494E-2
MEAN_MOTION_DOT = -.1177939E-1
MEAN_MOTION_DDOT = 0

CCSDS_OMM_VERS = 2.0
CREATION_DATE  = 
ORIGINATOR     = 

OBJECT_NAME    = STARLINK-37103
OBJECT_ID      = 2026-055F
CENTER_NAME    = EARTH
REF_FRAME      = TEME
TIME_SYSTEM    = UTC
MEAN_ELEMENT_THEORY = SGP/SGP4

EPOCH          = 2026-04-01T20:00:01.999008
MEAN_MOTION    = 15.85977985
ECCENTRICITY   = .0000705
INCLINATION    = 53.1577
RA_OF_ASC_NODE = 221.3038
ARG_OF_PERICENTER = 62.2111
MEAN_ANOMALY   = 240.6288

EPHEMERIS_TYPE = 0
CLASSIFICATION_TYPE = U
NORAD_CAT_ID   = 68267
ELEMENT_SET_NO = 999
REV_AT_EPOCH   = 335
BSTAR          = -.52809E-2
MEAN_MOTION_DOT = -.1185042E-1
MEAN_MOTION_DDOT = 0

CCSDS_OMM_VERS = 2.0
CREATION_DATE  = 
ORIGINATOR     = 

OBJECT_NAME    = STARLINK-36999
OBJECT_ID      = 2026-055G
CENTER_NAME    = EARTH
REF_FRAME      = TEME
TIME_SYSTEM    = UTC
MEAN_ELEMENT_THEORY = SGP/SGP4

EPOCH          = 2026-04-01T20:00:01.999008
MEAN_MOTION    = 15.86016713
ECCENTRICITY   = .000072
INCLINATION    = 53.1575
RA_OF_ASC_NODE = 221.2953
ARG_OF_PERICENTER = 59.7250
MEAN_ANOMALY   = 247.2977

EPHEMERIS_TYPE = 0
CLASSIFICATION_TYPE = U
NORAD_CAT_ID   = 68268
ELEMENT_SET_NO = 999
REV_AT_EPOCH   = 335
BSTAR          = -.52895E-2
MEAN_MOTION_DOT = -.1188798E-1
MEAN_MOTION_DDOT = 0

CCSDS_OMM_VERS = 2.0
CREATION_DATE  = 
ORIGINATOR     = 

OBJECT_NAME    = STARLINK-36962
OBJECT_ID      = 2026-055H
CENTER_NAME    = EARTH
REF_FRAME      = TEME
TIME_SYSTEM    = UTC
MEAN_ELEMENT_THEORY = SGP/SGP4

EPOCH          = 2026-04-01T20:00:01.999008
MEAN_MOTION    = 15.86048878
ECCENTRICITY   = .0000772
INCLINATION    = 53.1576
RA_OF_ASC_NODE = 221.2862
ARG_OF_PERICENTER = 61.6377
MEAN_ANOMALY   = 249.6831

EPHEMERIS_TYPE = 0
CLASSIFICATION_TYPE = U
NORAD_CAT_ID   = 68269
ELEMENT_SET_NO = 999
REV_AT_EPOCH   = 335
BSTAR          = -.53148E-2
MEAN_MOTION_DOT = -.1195582E-1
MEAN_MOTION_DDOT = 0

CCSDS_OMM_VERS = 2.0
CREATION_DATE  = 
ORIGINATOR     = 

OBJECT_NAME    = STARLINK-37028
OBJECT_ID      = 2026-055J
CENTER_NAME    = EARTH
REF_FRAME      = TEME
TIME_SYSTEM    = UTC
MEAN_ELEMENT_THEORY = SGP/SGP4

EPOCH          = 2026-04-01T20:00:01.999008
MEAN_MOTION    = 15.85912451
ECCENTRICITY   = .0000781
INCLINATION    = 53.1576
RA_OF_ASC_NODE = 221.2638
ARG_OF_PERICENTER = 57.3266
MEAN_ANOMALY   = 264.5214

EPHEMERIS_TYPE = 0
CLASSIFICATION_TYPE = U
NORAD_CAT_ID   = 68270
ELEMENT_SET_NO = 999
REV_AT_EPOCH   = 335
BSTAR          = -.56882E-2
MEAN_MOTION_DOT = -.126236E-1
MEAN_MOTION_DDOT = 0

CCSDS_OMM_VERS = 2.0
CREATION_DATE  = 
ORIGINATOR     = 

OBJECT_NAME    = STARLINK-37029
OBJECT_ID      = 2026-055K
CENTER_NAME    = EARTH
REF_FRAME      = TEME
TIME_SYSTEM    = UTC
MEAN_ELEMENT_THEORY = SGP/SGP4

EPOCH          = 2026-04-01T20:00:01.999008
MEAN_MOTION    = 15.85874795
ECCENTRICITY   = .0000759
INCLINATION    = 53.1576
RA_OF_ASC_NODE = 221.2734
ARG_OF_PERICENTER = 58.9569
MEAN_ANOMALY   = 258.5134

EPHEMERIS_TYPE = 0
CLASSIFICATION_TYPE = U
NORAD_CAT_ID   = 68271
ELEMENT_SET_NO = 999
REV_AT_EPOCH   = 335
BSTAR          = -.55184E-2
MEAN_MOTION_DOT = -.122686E-1
MEAN_MOTION_DDOT = 0

CCSDS_OMM_VERS = 2.0
CREATION_DATE  = 
ORIGINATOR     = 

OBJECT_NAME    = STARLINK-36974
OBJECT_ID      = 2026-055L
CENTER_NAME    = EARTH
REF_FRAME      = TEME
TIME_SYSTEM    = UTC
MEAN_ELEMENT_THEORY = SGP/SGP4

EPOCH          = 2026-04-01T20:00:01.999008
MEAN_MOTION    = 15.85909415
ECCENTRICITY   = .0000718
INCLINATION    = 53.1574
RA_OF_ASC_NODE = 221.2538
ARG_OF_PERICENTER = 57.3170
MEAN_ANOMALY   = 269.4136

EPHEMERIS_TYPE = 0
CLASSIFICATION_TYPE = U
NORAD_CAT_ID   = 68272
ELEMENT_SET_NO = 999
REV_AT_EPOCH   = 335
BSTAR          = -.61788E-2
MEAN_MOTION_DOT = -.1357424E-1
MEAN_MOTION_DDOT = 0

CCSDS_OMM_VERS = 2.0
CREATION_DATE  = 
ORIGINATOR     = 

OBJECT_NAME    = STARLINK-37019
OBJECT_ID      = 2026-055M
CENTER_NAME    = EARTH
REF_FRAME      = TEME
TIME_SYSTEM    = UTC
MEAN_ELEMENT_THEORY = SGP/SGP4

EPOCH          = 2026-04-01T20:00:01.999008
MEAN_MOTION    = 15.85954259
ECCENTRICITY   = .0000715
INCLINATION    = 53.1576
RA_OF_ASC_NODE = 221.2446
ARG_OF_PERICENTER = 59.0397
MEAN_ANOMALY   = 271.8170

EPHEMERIS_TYPE = 0
CLASSIFICATION_TYPE = U
NORAD_CAT_ID   = 68273
ELEMENT_SET_NO = 999
REV_AT_EPOCH   = 335
BSTAR          = -.62661E-2
MEAN_MOTION_DOT = -.1376799E-1
MEAN_MOTION_DDOT = 0

CCSDS_OMM_VERS = 2.0
CREATION_DATE  = 
ORIGINATOR     = 

OBJECT_NAME    = STARLINK-37129
OBJECT_ID      = 2026-055N
CENTER_NAME    = EARTH
REF_FRAME      = TEME
TIME_SYSTEM    = UTC
MEAN_ELEMENT_THEORY = SGP/SGP4

EPOCH          = 2026-04-01T20:00:01.999008
MEAN_MOTION    = 15.85958459
ECCENTRICITY   = .000074
INCLINATION    = 53.1574
RA_OF_ASC_NODE = 221.2358
ARG_OF_PERICENTER = 58.6176
MEAN_ANOMALY   = 276.6406

EPHEMERIS_TYPE = 0
CLASSIFICATION_TYPE = U
NORAD_CAT_ID   = 68274
ELEMENT_SET_NO = 999
REV_AT_EPOCH   = 335
BSTAR          = -.63693E-2
MEAN_MOTION_DOT = -.1396789E-1
MEAN_MOTION_DDOT = 0

CCSDS_OMM_VERS = 2.0
CREATION_DATE  = 
ORIGINATOR     = 

OBJECT_NAME    = STARLINK-37123
OBJECT_ID      = 2026-055P
CENTER_NAME    = EARTH
REF_FRAME      = TEME
TIME_SYSTEM    = UTC
MEAN_ELEMENT_THEORY = SGP/SGP4

EPOCH          = 2026-04-01T20:00:01.999008
MEAN_MOTION    = 15.86000643
ECCENTRICITY   = .000072
INCLINATION    = 53.1578
RA_OF_ASC_NODE = 221.2275
ARG_OF_PERICENTER = 57.4935
MEAN_ANOMALY   = 281.8181

EPHEMERIS_TYPE = 0
CLASSIFICATION_TYPE = U
NORAD_CAT_ID   = 68275
ELEMENT_SET_NO = 999
REV_AT_EPOCH   = 335
BSTAR          = -.63509E-2
MEAN_MOTION_DOT = -.1395799E-1
MEAN_MOTION_DDOT = 0

CCSDS_OMM_VERS = 2.0
CREATION_DATE  = 
ORIGINATOR     = 

OBJECT_NAME    = STARLINK-37125
OBJECT_ID      = 2026-055Q
CENTER_NAME    = EARTH
REF_FRAME      = TEME
TIME_SYSTEM    = UTC
MEAN_ELEMENT_THEORY = SGP/SGP4

EPOCH          = 2026-04-01T20:00:01.999008
MEAN_MOTION    = 15.85938909
ECCENTRICITY   = .0000813
INCLINATION    = 53.1574
RA_OF_ASC_NODE = 221.2176
ARG_OF_PERICENTER = 56.3328
MEAN_ANOMALY   = 287.7697

EPHEMERIS_TYPE = 0
CLASSIFICATION_TYPE = U
NORAD_CAT_ID   = 68276
ELEMENT_SET_NO = 999
REV_AT_EPOCH   = 335
BSTAR          = -.64391E-2
MEAN_MOTION_DOT = -.1408948E-1
MEAN_MOTION_DDOT = 0

CCSDS_OMM_VERS = 2.0
CREATION_DATE  = 
ORIGINATOR     = 

OBJECT_NAME    = STARLINK-36989
OBJECT_ID      = 2026-055R
CENTER_NAME    = EARTH
REF_FRAME      = TEME
TIME_SYSTEM    = UTC
MEAN_ELEMENT_THEORY = SGP/SGP4

EPOCH          = 2026-04-01T20:00:01.999008
MEAN_MOTION    = 15.85905955
ECCENTRICITY   = .0000735
INCLINATION    = 53.1574
RA_OF_ASC_NODE = 221.1900
ARG_OF_PERICENTER = 62.6931
MEAN_ANOMALY   = 294.6685

EPHEMERIS_TYPE = 0
CLASSIFICATION_TYPE = U
NORAD_CAT_ID   = 68277
ELEMENT_SET_NO = 999
REV_AT_EPOCH   = 335
BSTAR          = -.65361E-2
MEAN_MOTION_DOT = -.1425269E-1
MEAN_MOTION_DDOT = 0

CCSDS_OMM_VERS = 2.0
CREATION_DATE  = 
ORIGINATOR     = 

OBJECT_NAME    = STARLINK-36982
OBJECT_ID      = 2026-055S
CENTER_NAME    = EARTH
REF_FRAME      = TEME
TIME_SYSTEM    = UTC
MEAN_ELEMENT_THEORY = SGP/SGP4

EPOCH          = 2026-04-01T20:00:01.999008
MEAN_MOTION    = 15.85898814
ECCENTRICITY   = .0000721
INCLINATION    = 53.1574
RA_OF_ASC_NODE = 221.1996
ARG_OF_PERICENTER = 59.7901
MEAN_ANOMALY   = 293.2930

EPHEMERIS_TYPE = 0
CLASSIFICATION_TYPE = U
NORAD_CAT_ID   = 68278
ELEMENT_SET_NO = 999
REV_AT_EPOCH   = 335
BSTAR          = -.65245E-2
MEAN_MOTION_DOT = -.1422643E-1
MEAN_MOTION_DDOT = 0

CCSDS_OMM_VERS = 2.0
CREATION_DATE  = 
ORIGINATOR     = 

OBJECT_NAME    = STARLINK-36934
OBJECT_ID      = 2026-055T
CENTER_NAME    = EARTH
REF_FRAME      = TEME
TIME_SYSTEM    = UTC
MEAN_ELEMENT_THEORY = SGP/SGP4

EPOCH          = 2026-04-01T20:00:01.999008
MEAN_MOTION    = 15.85886141
ECCENTRICITY   = .0001075
INCLINATION    = 53.1572
RA_OF_ASC_NODE = 221.2081
ARG_OF_PERICENTER = 67.1295
MEAN_ANOMALY   = 281.6644

EPHEMERIS_TYPE = 0
CLASSIFICATION_TYPE = U
NORAD_CAT_ID   = 68279
ELEMENT_SET_NO = 999
REV_AT_EPOCH   = 335
BSTAR          = -.6496E-2
MEAN_MOTION_DOT = -.141675E-1
MEAN_MOTION_DDOT = 0

CCSDS_OMM_VERS = 2.0
CREATION_DATE  = 
ORIGINATOR     = 

OBJECT_NAME    = STARLINK-37070
OBJECT_ID      = 2026-055U
CENTER_NAME    = EARTH
REF_FRAME      = TEME
TIME_SYSTEM    = UTC
MEAN_ELEMENT_THEORY = SGP/SGP4

EPOCH          = 2026-04-01T20:00:01.999008
MEAN_MOTION    = 15.85861782
ECCENTRICITY   = .0000802
INCLINATION    = 53.1576
RA_OF_ASC_NODE = 221.1804
ARG_OF_PERICENTER = 53.8426
MEAN_ANOMALY   = 308.1852

EPHEMERIS_TYPE = 0
CLASSIFICATION_TYPE = U
NORAD_CAT_ID   = 68280
ELEMENT_SET_NO = 999
REV_AT_EPOCH   = 335
BSTAR          = -.6638E-2
MEAN_MOTION_DOT = -.1471277E-1
MEAN_MOTION_DDOT = 0

